{"type": "FeatureCollection", "features": [ {"type": "Feature", "properties": {"norad_id": 35829, "name": "COSMOS 2251 DEB", "group": "cosmos-2251-debris", "lat": -44.51861747601923, "lon": -56.82625062457599, "alt_km": 645.601397709579, "timestamp": "2025-12-08T15:42:50.192828+00:00", "meta": {"OBJECT_NAME": "COSMOS 2251 DEB", "OBJECT_ID": "1993-036ATB", "EPOCH": "2025-12-06T15:31:06.082752", "MEAN_MOTION": 14.76019114, "ECCENTRICITY": 0.00069566, "INCLINATION": 74.0253, "RA_OF_ASC_NODE": 110.7447, "ARG_OF_PERICENTER": 170.1398, "MEAN_ANOMALY": 189.9914, "EPHEMERIS_TYPE": 0, "CLASSIFICATION_TYPE": "U", "NORAD_CAT_ID": 35829, "ELEMENT_SET_NO": 999, "REV_AT_EPOCH": 87685, "BSTAR": 0.003503633, "MEAN_MOTION_DOT": 0.00024203, "MEAN_MOTION_DDOT": 0}, "tle": {"line1": "1 35829U 93036ATB 25340.64659818  .00024203  00000+0  35036-2 0  9998", "line2": "2 35829  74.0253 110.7447 0006956 170.1398 189.9914 14.76019114876858"}}, "geometry": {"type": "Point", "coordinates": [-56.82625062457599, -44.51861747601923]}}, {"type": "Feature", "properties": {"norad_id": 35830, "name": "COSMOS 2251 DEB", "group": "cosmos-2251-debris", "lat": -34.32505788290183, "lon": 105.27152270539428, "alt_km": 739.2305565691522, "timestamp": "2025-12-08T15:42:50.192838+00:00", "meta": {"OBJECT_NAME": "COSMOS 2251 DEB", "OBJECT_ID": "1993-036ATC", "EPOCH": "2025-12-06T12:06:38.215008", "MEAN_MOTION": 14.23927917, "ECCENTRICITY": 0.01224789, "INCLINATION": 73.8624, "RA_OF_ASC_NODE": 277.7805, "ARG_OF_PERICENTER": 247.2482, "MEAN_ANOMALY": 111.5683, "EPHEMERIS_TYPE": 0, "CLASSIFICATION_TYPE": "U", "NORAD_CAT_ID": 35830, "ELEMENT_SET_NO": 999, "REV_AT_EPOCH": 61175, "BSTAR": 0.0019622096, "MEAN_MOTION_DOT": 4.837e-05, "MEAN_MOTION_DDOT": 0}, "tle": {"line1": "1 35830U 93036ATC 25340.50460897  .00004837  00000+0  19622-2 0  9996", "line2": "2 35830  73.8624 277.7805 0122478 247.2482 111.5683 14.23927917611750"}}, "geometry": {"type": "Point", "coordinates": [105.27152270539428, -34.32505788290183]}}, {"type": "Feature", "properties": {"norad_id": 35834, "name": "COSMOS 2251 DEB", "group": "cosmos-2251-debris", "lat": -36.08160590210857, "lon": 143.93560246370674, "alt_km": 874.3944717668119, "timestamp": "2025-12-08T15:42:50.192849+00:00", "meta": {"OBJECT_NAME": "COSMOS 2251 DEB", "OBJECT_ID": "1993-036ATG", "EPOCH": "2025-12-07T21:51:03.324096", "MEAN_MOTION": 14.12971777, "ECCENTRICITY": 0.01091665, "INCLINATION": 73.9307, "RA_OF_ASC_NODE": 313.1347, "ARG_OF_PERICENTER": 114.4592, "MEAN_ANOMALY": 277.5198, "EPHEMERIS_TYPE": 0, "CLASSIFICATION_TYPE": "U", "NORAD_CAT_ID": 35834, "ELEMENT_SET_NO": 999, "REV_AT_EPOCH": 66195, "BSTAR": 0.00031410391, "MEAN_MOTION_DOT": 5.95e-06, "MEAN_MOTION_DDOT": 0}, "tle": {"line1": "1 35834U 93036ATG 25341.91045514  .00000595  00000+0  31410-3 0  9998", "line2": "2 35834  73.9307 313.1347 0109166 114.4592 277.5198 14.12971777661957"}}, "geometry": {"type": "Point", "coordinates": [143.93560246370674, -36.08160590210857]}}, {"type": "Feature", "properties": {"norad_id": 35835, "name": "COSMOS 2251 DEB", "group": "cosmos-2251-debris", "lat": -52.023311963062866, "lon": 116.77431108476523, "alt_km": 1172.6601071130062, "timestamp": "2025-12-08T15:42:50.192859+00:00", "meta": {"OBJECT_NAME": "COSMOS 2251 DEB", "OBJECT_ID": "1993-036ATH", "EPOCH": "2025-12-08T02:26:31.163712", "MEAN_MOTION": 13.82845446, "ECCENTRICITY": 0.0289856, "INCLINATION": 74.0637, "RA_OF_ASC_NODE": 276.2339, "ARG_OF_PERICENTER": 58.9026, "MEAN_ANOMALY": 304.0195, "EPHEMERIS_TYPE": 0, "CLASSIFICATION_TYPE": "U", "NORAD_CAT_ID": 35835, "ELEMENT_SET_NO": 999, "REV_AT_EPOCH": 61635, "BSTAR": 0.0020246404, "MEAN_MOTION_DOT": 3.026e-05, "MEAN_MOTION_DDOT": 0}, "tle": {"line1": "1 35835U 93036ATH 25342.10174958  .00003026  00000+0  20246-2 0  9992", "line2": "2 35835  74.0637 276.2339 0289856  58.9026 304.0195 13.82845446616351"}}, "geometry": {"type": "Point", "coordinates": [116.77431108476523, -52.023311963062866]}}, {"type": "Feature", "properties": {"norad_id": 35836, "name": "COSMOS 2251 DEB", "group": "cosmos-2251-debris", "lat": -55.902327308019544, "lon": 25.890290517233055, "alt_km": 647.8009854236197, "timestamp": "2025-12-08T15:42:50.192869+00:00", "meta": {"OBJECT_NAME": "COSMOS 2251 DEB", "OBJECT_ID": "1993-036ATJ", "EPOCH": "2025-12-08T06:27:56.390688", "MEAN_MOTION": 14.70815934, "ECCENTRICITY": 0.00246415, "INCLINATION": 74.0313, "RA_OF_ASC_NODE": 181.6162, "ARG_OF_PERICENTER": 240.7516, "MEAN_ANOMALY": 119.1191, "EPHEMERIS_TYPE": 0, "CLASSIFICATION_TYPE": "U", "NORAD_CAT_ID": 35836, "ELEMENT_SET_NO": 999, "REV_AT_EPOCH": 63454, "BSTAR": 0.0020209158, "MEAN_MOTION_DOT": 0.00012396, "MEAN_MOTION_DDOT": 0}, "tle": {"line1": "1 35836U 93036ATJ 25342.26940267  .00012396  00000+0  20209-2 0  9993", "line2": "2 35836  74.0313 181.6162 0024641 240.7516 119.1191 14.70815934634549"}}, "geometry": {"type": "Point", "coordinates": [25.890290517233055, -55.902327308019544]}}, {"type": "Feature", "properties": {"norad_id": 35837, "name": "COSMOS 2251 DEB", "group": "cosmos-2251-debris", "lat": -53.03676284086337, "lon": -168.42587503533574, "alt_km": 1334.651827745276, "timestamp": "2025-12-08T15:42:50.192880+00:00", "meta": {"OBJECT_NAME": "COSMOS 2251 DEB", "OBJECT_ID": "1993-036ATK", "EPOCH": "2025-12-07T22:31:32.970720", "MEAN_MOTION": 13.63422075, "ECCENTRICITY": 0.04220262, "INCLINATION": 73.7211, "RA_OF_ASC_NODE": 215.6126, "ARG_OF_PERICENTER": 137.1578, "MEAN_ANOMALY": 251.5958, "EPHEMERIS_TYPE": 0, "CLASSIFICATION_TYPE": "U", "NORAD_CAT_ID": 35837, "ELEMENT_SET_NO": 999, "REV_AT_EPOCH": 57911, "BSTAR": 0.0024112323, "MEAN_MOTION_DOT": 3.456e-05, "MEAN_MOTION_DDOT": 0}, "tle": {"line1": "1 35837U 93036ATK 25341.93857605  .00003456  00000+0  24112-2 0  9994", "line2": "2 35837  73.7211 215.6126 0422026 137.1578 251.5958 13.63422075579111"}}, "geometry": {"type": "Point", "coordinates": [-168.42587503533574, -53.03676284086337]}}, {"type": "Feature", "properties": {"norad_id": 35839, "name": "COSMOS 2251 DEB", "group": "cosmos-2251-debris", "lat": 74.01604116272732, "lon": 71.29892967903403, "alt_km": 412.3599982711012, "timestamp": "2025-12-08T15:42:50.192890+00:00", "meta": {"OBJECT_NAME": "COSMOS 2251 DEB", "OBJECT_ID": "1993-036ATM", "EPOCH": "2025-12-07T09:51:22.453920", "MEAN_MOTION": 15.48129363, "ECCENTRICITY": 0.00022318, "INCLINATION": 74.2099, "RA_OF_ASC_NODE": 335.0837, "ARG_OF_PERICENTER": 8.4811, "MEAN_ANOMALY": 351.644, "EPHEMERIS_TYPE": 0, "CLASSIFICATION_TYPE": "U", "NORAD_CAT_ID": 35839, "ELEMENT_SET_NO": 999, "REV_AT_EPOCH": 88485, "BSTAR": 0.0063230945, "MEAN_MOTION_DOT": 0.0034734, "MEAN_MOTION_DDOT": 0}, "tle": {"line1": "1 35839U 93036ATM 25341.41067655  .00347340  00000+0  63231-2 0  9995", "line2": "2 35839  74.2099 335.0837 0002231   8.4811 351.6440 15.48129363884858"}}, "geometry": {"type": "Point", "coordinates": [71.29892967903403, 74.01604116272732]}}, {"type": "Feature", "properties": {"norad_id": 35840, "name": "COSMOS 2251 DEB", "group": "cosmos-2251-debris", "lat": 73.32327090379121, "lon": -88.44949490640815, "alt_km": 683.173001735624, "timestamp": "2025-12-08T15:42:50.192900+00:00", "meta": {"OBJECT_NAME": "COSMOS 2251 DEB", "OBJECT_ID": "1993-036ATN", "EPOCH": "2025-12-07T19:14:43.874880", "MEAN_MOTION": 14.37753479, "ECCENTRICITY": 0.01162734, "INCLINATION": 73.9301, "RA_OF_ASC_NODE": 167.3302, "ARG_OF_PERICENTER": 71.0213, "MEAN_ANOMALY": 290.3497, "EPHEMERIS_TYPE": 0, "CLASSIFICATION_TYPE": "U", "NORAD_CAT_ID": 35840, "ELEMENT_SET_NO": 999, "REV_AT_EPOCH": 85220, "BSTAR": 0.0026020833, "MEAN_MOTION_DOT": 8.452e-05, "MEAN_MOTION_DDOT": 0}, "tle": {"line1": "1 35840U 93036ATN 25341.80189670  .00008452  00000+0  26021-2 0  9996", "line2": "2 35840  73.9301 167.3302 0116273  71.0213 290.3497 14.37753479852202"}}, "geometry": {"type": "Point", "coordinates": [-88.44949490640815, 73.32327090379121]}}, {"type": "Feature", "properties": {"norad_id": 35883, "name": "COSMOS 2251 DEB", "group": "cosmos-2251-debris", "lat": -73.67115977434464, "lon": -24.384401310943176, "alt_km": 699.322063885189, "timestamp": "2025-12-08T15:42:50.192911+00:00", "meta": {"OBJECT_NAME": "COSMOS 2251 DEB", "OBJECT_ID": "1993-036ATW", "EPOCH": "2025-12-08T00:24:37.194624", "MEAN_MOTION": 14.50584446, "ECCENTRICITY": 0.00839358, "INCLINATION": 74.0249, "RA_OF_ASC_NODE": 78.9103, "ARG_OF_PERICENTER": 209.3068, "MEAN_ANOMALY": 327.9656, "EPHEMERIS_TYPE": 0, "CLASSIFICATION_TYPE": "U", "NORAD_CAT_ID": 35883, "ELEMENT_SET_NO": 999, "REV_AT_EPOCH": 62317, "BSTAR": 0.00055538477, "MEAN_MOTION_DOT": 2.249e-05, "MEAN_MOTION_DDOT": 0}, "tle": {"line1": "1 35883U 93036ATW 25342.01709716  .00002249  00000+0  55538-3 0  9990", "line2": "2 35883  74.0249  78.9103 0083935 209.3068 327.9656 14.50584446623177"}}, "geometry": {"type": "Point", "coordinates": [-24.384401310943176, -73.67115977434464]}}, {"type": "Feature", "properties": {"norad_id": 35884, "name": "COSMOS 2251 DEB", "group": "cosmos-2251-debris", "lat": -7.463909352000953, "lon": -18.750195953016238, "alt_km": 868.7794992487143, "timestamp": "2025-12-08T15:42:50.192921+00:00", "meta": {"OBJECT_NAME": "COSMOS 2251 DEB", "OBJECT_ID": "1993-036ATX", "EPOCH": "2025-12-06T18:16:42.391200", "MEAN_MOTION": 14.25605565, "ECCENTRICITY": 0.01089766, "INCLINATION": 73.9907, "RA_OF_ASC_NODE": 346.8314, "ARG_OF_PERICENTER": 135.364, "MEAN_ANOMALY": 225.6347, "EPHEMERIS_TYPE": 0, "CLASSIFICATION_TYPE": "U", "NORAD_CAT_ID": 35884, "ELEMENT_SET_NO": 999, "REV_AT_EPOCH": 22272, "BSTAR": 0.0019229553, "MEAN_MOTION_DOT": 4.824e-05, "MEAN_MOTION_DDOT": 0}, "tle": {"line1": "1 35884U 93036ATX 25340.76160175  .00004824  00000+0  19230-2 0  9990", "line2": "2 35884  73.9907 346.8314 0108976 135.3640 225.6347 14.25605565222720"}}, "geometry": {"type": "Point", "coordinates": [-18.750195953016238, -7.463909352000953]}}]}